EGHI 312150Z 00000KT CAVOK 09/07 Q1024=
EGHI 312120Z 23001KT CAVOK 09/08 Q1024=
EGHI 312050Z 23001KT CAVOK 10/08 Q1024=
EGHI 312020Z 22002KT 9000 NSC 10/08 Q1024=
EGHI 311950Z 22003KT 9000 NSC 10/08 Q1024=
EGHI 311920Z 22003KT 9000 NSC 10/08 Q1024=
EGHI 311850Z 22003KT 9000 NSC 11/08 Q1025=
EGHI 311820Z 22003KT 9000 NSC 11/08 Q1025=
EGHI 311750Z 22003KT 9999 FEW025 11/08 Q1025=
EGHI 311720Z 00000KT 9999 FEW025 11/08 Q1025=
EGHI 311650Z 26001KT 9999 FEW022 12/08 Q1025=
EGHI 311620Z 25002KT 9999 FEW022 12/08 Q1025=
EGHI 311550Z VRB03KT 9999 FEW022 12/08 Q1025=
EGHI 311520Z 24006KT 9999 FEW023 12/08 Q1025=
EGHI 311450Z 23006KT 9999 FEW023 13/08 Q1025=
EGHI 311420Z 23006KT 9999 FEW023 13/08 Q1025=
EGHI 311350Z 24005KT 210V270 9999 FEW023 13/08 Q1026=
EGHI 311320Z 23007KT 200V260 9999 FEW022 13/07 Q1026=
EGHI 311250Z 22008KT 9999 FEW022 12/07 Q1026=
EGHI 311220Z 23006KT 200V260 9999 FEW024 13/08 Q1026=
EGHI 311150Z 24007KT 200V270 9999 FEW024 12/07 Q1027=
EGHI 311120Z 24008KT 9999 FEW030 12/07 Q1027=
EGHI 311050Z 23006KT 200V260 9999 FEW030 12/07 Q1027=
EGHI 311020Z 25006KT 220V290 CAVOK 11/07 Q1027=
EGHI 310950Z VRB03KT 9999 FEW045 10/08 Q1027=
EGHI 310920Z VRB02KT 9999 FEW045 09/07 Q1027=
EGHI 310850Z 00000KT 9999 FEW045 08/06 Q1027=
EGHI 310820Z 00000KT 9999 FEW038 06/05 Q1027=
EGHI 310750Z 00000KT 9999 FEW038 04/04 Q1028=
EGHI 310720Z 00000KT 9999 FEW036 04/04 Q1028=
EGHI 310650Z 00000KT 9999 FEW036 05/04 Q1027=
EGHI 310620Z VRB01KT 9999 FEW032 04/04 Q1027=
EGHI 310550Z 00000KT 9999 FEW032 04/04 Q1027=
EGHI 302220Z 00000KT CAVOK 01/01 Q1031=
EGHI 302150Z 00000KT CAVOK 02/01 Q1031=
EGHI 302120Z 00000KT CAVOK 02/01 Q1031=
EGHI 302050Z 00000KT CAVOK 02/01 Q1031=
EGHI 302020Z 00000KT CAVOK 03/02 Q1031=
EGHI 301950Z 00000KT CAVOK 03/02 Q1031=
EGHI 301920Z 00000KT CAVOK 03/02 Q1030=
EGHI 301850Z 00000KT CAVOK 04/02 Q1031=
EGHI 301820Z 00000KT 9999 FEW045 05/03 Q1031=
EGHI 301750Z 00000KT 9999 FEW042 05/03 Q1031=
EGHI 301720Z 30002KT 9999 FEW042 06/03 Q1031=
EGHI 301650Z VRB02KT 9999 FEW038 08/03 Q1030=
EGHI 301620Z 00000KT 9999 FEW035 08/03 Q1030=
EGHI 301550Z 14001KT 9999 FEW035 10/03 Q1030=
EGHI 301520Z 00000KT 9999 FEW035 12/03 Q1030=
EGHI 301450Z VRB01KT 9999 FEW035 11/02 Q1031=
EGHI 301420Z VRB01KT 9999 FEW030 11/03 Q1031=
EGHI 301350Z VRB01KT 9999 FEW030 11/03 Q1031=
EGHI 301320Z 00000KT 9999 FEW030 11/04 Q1031=
EGHI 301250Z VRB01KT 9999 FEW024 11/04 Q1031=
EGHI 301220Z VRB01KT 9999 FEW022 10/04 Q1031=
EGHI 301150Z VRB02KT CAVOK 09/04 Q1031=
EGHI 301120Z VRB02KT CAVOK 09/04 Q1032=
EGHI 301050Z VRB01KT CAVOK 08/04 Q1032=
EGHI 301020Z 01004KT 340V040 CAVOK 06/03 Q1032=
EGHI 300950Z 01005KT CAVOK 06/03 Q1032=
EGHI 300920Z VRB03KT CAVOK 05/03 Q1032=
EGHI 300850Z VRB03KT CAVOK 04/02 Q1032=
EGHI 300820Z 00000KT CAVOK 03/02 Q1032=
EGHI 300750Z VRB01KT CAVOK 01/00 Q1031=
EGHI 300720Z VRB01KT CAVOK 01/00 Q1031=
EGHI 300650Z 00000KT CAVOK 00/M00 Q1031=
EGHI 300620Z 00000KT CAVOK 00/M00 Q1030=
EGHI 300550Z 36002KT CAVOK 01/00 Q1030=
EGHI 292150Z 00000KT CAVOK 03/02 Q1029=
EGHI 292120Z VRB01KT CAVOK 04/03 Q1029=
EGHI 292050Z 00000KT CAVOK 04/03 Q1028=
EGHI 292020Z 00000KT 9999 FEW046 04/03 Q1028=
EGHI 291950Z 00000KT 9999 FEW046 04/03 Q1027=
EGHI 291920Z 00000KT 9999 FEW046 04/03 Q1027=
EGHI 291850Z 00000KT 9999 FEW048 04/03 Q1027=
EGHI 291820Z VRB01KT 9999 FEW048 05/03 Q1027=
EGHI 291750Z VRB01KT 9999 FEW032 07/03 Q1026=
EGHI 291720Z 36002KT 9999 FEW036 08/03 Q1026=
EGHI 291650Z 01004KT 9999 FEW036 08/03 Q1026=
EGHI 291620Z 01006KT 340V040 9999 FEW032 10/04 Q1025=
EGHI 291550Z 01010KT 9999 FEW032 11/04 Q1025=
EGHI 291520Z 04007KT 010V070 9999 FEW032 12/04 Q1025=
EGHI 291450Z 04009KT 010V070 9999 FEW030 SCT049 12/05 Q1024=
EGHI 291420Z 04008KT 010V070 9999 FEW030 SCT041 13/06 Q1024=
EGHI 291350Z 03014KT 9999 FEW030 SCT041 12/05 Q1024=
EGHI 291320Z 01009KT 340V050 9999 SCT040 13/05 Q1023=
EGHI 291250Z 36013KT 340V040 9999 SCT040 14/07 Q1023=
EGHI 291220Z 36013KT 340V040 9999 SCT042 14/07 Q1023=
EGHI 291150Z 36013KT 340V040 9999 FEW030 SCT042 14/07 Q1023=
EGHI 291120Z 36013KT 340V040 9999 SCT045 14/07 Q1023=
EGHI 291050Z 36010KT 320V020 9999 SCT045 14/07 Q1023=
EGHI 291020Z 36008KT 320V050 9999 FEW021 SCT045 14/07 Q1023=
EGHI 290950Z 35007KT 300V040 9999 SCT021 BKN040 13/08 Q1023=
EGHI 290920Z 35006KT 280V030 9999 SCT015 BKN037 13/09 Q1022=
EGHI 290850Z 35011KT 320V020 9000 VCSH SCT019 BKN030 13/10 Q1022=
EGHI 290820Z 30005KT 260V330 9999 VCSH SCT023 BKN035 14/11 Q1021=
EGHI 290750Z 30005KT 260V340 9999 SCT023 BKN035 13/11 Q1021=
EGHI 290720Z 29005KT 260V320 9999 SCT023 BKN035 14/11 Q1020=
EGHI 290650Z 29004KT 250V320 9999 SCT020 BKN035 13/11 Q1020=
EGHI 282150Z 30012G25KT 260V330 9999 BKN013 12/10 Q1023=
EGHI 282120Z 30012G25KT 260V330 9999 BKN013 12/10 Q1023=
EGHI 282050Z 29010KT 250V310 9999 BKN013 12/10 Q1023=
EGHI 282020Z 29010KT 250V310 9999 BKN014 12/10 Q1023=
EGHI 281950Z 29013KT 250V320 9999 BKN014 12/10 Q1024=
EGHI 281920Z 29009G20KT 250V320 9999 BKN015 13/10 Q1024=
EGHI 281850Z 29010KT 250V320 9999 BKN016 13/10 Q1024=
EGHI 281820Z 29008KT 260V320 9999 BKN018 13/10 Q1024=
EGHI 281750Z 30009G19KT 260V350 9999 BKN016 13/10 Q1024=
EGHI 281720Z 28008KT 240V320 9999 BKN016 13/10 Q1025=
EGHI 281650Z 29009KT 250V320 9999 BKN018 13/10 Q1025=
EGHI 281620Z 28009G19KT 240V320 9999 BKN018 14/10 Q1025=
EGHI 281550Z 28011KT 9999 BKN020 14/10 Q1025=
EGHI 281520Z 28010KT 250V310 9999 BKN020 14/10 Q1025=
EGHI 281450Z 27011KT 240V310 9999 BKN020 15/10 Q1025=
EGHI 281420Z 28010KT 240V320 9999 SCT024 15/10 Q1025=
EGHI 281350Z 28008KT 240V320 9999 SCT024 15/10 Q1026=
EGHI 281320Z 28007KT 230V320 9999 FEW024 15/09 Q1026=
EGHI 281250Z 28006KT 240V330 9999 FEW020 14/09 Q1026=
EGHI 281220Z 27007KT 230V300 9999 FEW018 14/09 Q1027=
EGHI 281150Z 28007KT 220V310 9999 FEW018 14/09 Q1027=
EGHI 281120Z 26008KT 230V300 9999 FEW020 13/09 Q1028=
EGHI 281050Z 28005KT 230V310 9000 FEW020 13/09 Q1028=
EGHI 281020Z 00000KT 9000 NSC 08/07 Q1028=
EGHI 280950Z 00000KT 9000 NSC 08/07 Q1029=
EGHI 280920Z 00000KT 8000 NSC 07/07 Q1029=
EGHI 280850Z 00000KT 5000 R20/1500 MIFG BR NSC 04/03 Q1030=
EGHI 280820Z 00000KT 5000 2500N R20/0300 BCFG NSC 02/01 Q1030=
EGHI 280750Z 00000KT 3000 R20/0450 BCFG NSC 01/01 Q1030=
EGHI 280720Z 00000KT 2000 R20/0800 BCFG NSC 00/M00 Q1030=
EGHI 280650Z 00000KT 6000 R20/1200 PRFG NSC M00/M01 Q1030=
EGHI 280620Z VRB01KT 9000 R20/1500 PRFG NSC M01/M01 Q1030=
EGHI 280550Z 00000KT 9000 MIFG NSC 00/00 Q1030=
EGHI 280450Z 00000KT 9000 MIFG NSC 00/M00 Q1031=
EGHI 272150Z 00000KT 9999 MIFG FEW035 04/03 Q1035=
EGHI 272120Z 00000KT 9999 MIFG FEW035 04/03 Q1035=
EGHI 272050Z 00000KT 9999 MIFG FEW035 04/03 Q1035=
EGHI 272020Z 00000KT 9999 MIFG FEW035 05/04 Q1035=
EGHI 271950Z 00000KT 9999 MIFG FEW035 05/04 Q1035=
EGHI 271920Z 00000KT 9999 MIFG FEW035 06/05 Q1035=
EGHI 271850Z VRB01KT 9999 SCT035 06/05 Q1035=
EGHI 271820Z 00000KT 9999 SCT035 07/05 Q1035=
EGHI 271750Z 00000KT 9999 SCT035 08/05 Q1035=
EGHI 271720Z 00000KT 9999 SCT035 09/06 Q1035=
EGHI 271650Z VRB01KT 9999 SCT035 10/06 Q1035=
EGHI 271620Z VRB03KT 9999 SCT035 12/05 Q1035=
EGHI 271550Z 36005KT 9999 SCT030 13/06 Q1035=
EGHI 271520Z 36005KT 9999 SCT030 13/06 Q1034=
EGHI 271450Z 36006KT 9999 SCT030 13/05 Q1034=
EGHI 271420Z 02004KT 9999 SCT030 13/07 Q1034=
EGHI 271350Z 25002KT 9999 SCT025 14/06 Q1034=
EGHI 271320Z VRB01KT 9999 SCT025 14/06 Q1034=
EGHI 271250Z 00000KT 9999 SCT025 14/07 Q1034=
EGHI 271220Z VRB03KT 9999 SCT020 13/07 Q1035=
EGHI 271150Z 02004KT 320V070 9999 SCT020 13/06 Q1035=
EGHI 271120Z 01005KT 320V060 9999 SCT020 13/07 Q1035=
EGHI 271050Z 02005KT 330V070 9999 FEW020 12/08 Q1035=
EGHI 271020Z 01007KT 340V040 9999 FEW020 11/08 Q1034=
EGHI 270950Z 02007KT 330V060 9999 FEW020 11/08 Q1034=
EGHI 270920Z 01008KT 9999 FEW020 10/07 Q1034=
EGHI 270850Z 02006KT CAVOK 10/08 Q1034=
EGHI 270820Z VRB02KT 9999 FEW020 10/07 Q1033=
EGHI 270750Z VRB01KT CAVOK 09/07 Q1033=
EGHI 270720Z VRB03KT CAVOK 08/07 Q1032=
EGHI 270650Z VRB03KT CAVOK 08/07 Q1032=
EGHI 270620Z 34004KT 310V010 CAVOK 09/07 Q1031=
EGHI 270550Z 36005KT CAVOK 09/07 Q1031=
EGHI 270520Z 34005KT 310V010 CAVOK 10/07 Q1030=
EGHI 270450Z 34006KT 310V010 9000 NSC 11/08 Q1030=
EGHI 262150Z 33002KT 9999 FEW020 12/11 Q1027=
EGHI 262120Z 33002KT 9999 FEW020 12/11 Q1027=
EGHI 262050Z 30001KT 9999 FEW020 13/11 Q1026=
EGHI 262020Z 25002KT 9999 BKN017 13/11 Q1026=
EGHI 261950Z 00000KT 9999 BKN017 12/11 Q1026=
EGHI 261920Z 30001KT 9999 BKN018 12/11 Q1026=
EGHI 261850Z 00000KT 9999 SCT018 11/10 Q1026=
EGHI 261820Z VRB02KT 9999 FEW018 13/11 Q1026=
EGHI 261750Z VRB01KT 9999 FEW018 13/11 Q1025=
EGHI 261720Z 25002KT 9999 FEW012 SCT018 14/12 Q1025=
EGHI 261650Z 29004KT 250V310 9999 FEW012 BKN018 14/12 Q1025=
EGHI 261620Z 27003KT 9999 BKN013 14/12 Q1025=
EGHI 261550Z 24004KT 9999 BKN015 14/12 Q1025=
EGHI 261520Z 24003KT 9999 FEW011 BKN016 14/12 Q1025=
EGHI 261450Z VRB03KT 9999 FEW011 BKN016 15/12 Q1025=
EGHI 261420Z VRB03KT 9999 BKN013 14/12 Q1025=
EGHI 261350Z 28004KT 240V330 9999 BKN013 15/12 Q1025=
EGHI 261320Z 27004KT 240V310 9999 BKN011 15/12 Q1025=
EGHI 261250Z 27004KT 9999 BKN011 15/12 Q1025=
EGHI 261220Z VRB03KT 9999 FEW007 BKN010 15/13 Q1025=
EGHI 261150Z 24004KT 9999 FEW005 BKN009 14/13 Q1025=
EGHI 261120Z VRB03KT 8000 FEW005 BKN007 14/13 Q1025=
EGHI 261050Z 24004KT 8000 -DZ SCT005 BKN007 14/13 Q1025=
EGHI 261020Z 20005KT 8000 -DZ SCT005 BKN007 14/13 Q1025=
EGHI 260950Z 21005KT 8000 SCT006 BKN010 14/13 Q1025=
EGHI 260920Z 22005KT 8000 4000N BR -DZ SCT006 BKN010 14/13 Q1025=
EGHI 260850Z 21003KT 8000 4000N BR -DZ SCT005 BKN008 14/13 Q1024=
EGHI 260820Z VRB03KT 6000 3000N BR -DZ SCT003 BKN005 14/13 Q1024=
EGHI 260750Z VRB01KT 2000 BR -DZ SCT002 BKN003 14/13 Q1024=
EGHI 260720Z 00000KT 0800 R20/P1500 FG -DZ OVC002 14/13 Q1024=
EGHI 260650Z 00000KT 0800 R20/1500 FG -DZ OVC002 13/12 Q1024=
EGHI 260620Z 14001KT 1000 R20/1500 BR -DZ OVC002 13/12 Q1024=
EGHI 260550Z VRB01KT 1200 R20/1500 BR BKN002 12/12 Q1024=
EGHI 260520Z VRB01KT 0800 FG BKN002 12/12 Q1024=
EGHI 260450Z VRB01KT 0500 FG -DZ OVC002 12/11 Q1024=
EGHI 122120Z 32007KT 280V350 CAVOK 04/M01 Q1021=
EGHI 122050Z 32007KT 270V350 CAVOK 05/M01 Q1021=
EGHI 122020Z 32007KT 270V350 CAVOK 05/M01 Q1020=
EGHI 121950Z 32008KT 270V350 CAVOK 05/M01 Q1020=
EGHI 121920Z 32009KT 280V350 CAVOK 05/M01 Q1019=
EGHI 121850Z 32009KT 280V360 CAVOK 05/M01 Q1019=
EGHI 121820Z 34009KT 300V010 CAVOK 05/M00 Q1018=
EGHI 121750Z 33007KT 270V020 CAVOK 05/M00 Q1017=
EGHI 121720Z 33011KT 300V360 CAVOK 06/M01 Q1016=
EGHI 121650Z 33011KT 300V360 9999 FEW045 06/M01 Q1016=
EGHI 121620Z 33013KT 300V360 9999 FEW040 07/M00 Q1015=
EGHI 121550Z 34013G23KT 290V360 9999 FEW036 07/00 Q1015=
EGHI 121520Z 34011KT 310V010 9999 FEW036 07/M00 Q1014=
EGHI 121450Z 33012KT 280V360 9999 SCT034 07/00 Q1014=
EGHI 121420Z 33017KT 300V360 9999 SCT034 08/M00 Q1013=
EGHI 121350Z 33016KT 290V360 9999 SCT030 08/01 Q1013=
EGHI 121320Z 32013G23KT 280V350 9999 SCT028 08/01 Q1013=
EGHI 121250Z 31014KT 250V350 9999 FEW028 07/01 Q1012=
EGHI 121220Z 32013KT 270V010 9999 FEW022 SCT035 07/02 Q1012=
EGHI 121150Z 32014G27KT 290V360 9999 FEW018 SCT035 07/02 Q1012=
EGHI 121120Z 31015KT 260V340 9999 FEW018 SCT035 08/02 Q1012=
EGHI 121050Z 32012KT 270V010 9999 FEW018 SCT035 08/03 Q1011=
EGHI 121020Z 31010KT 9999 FEW020 SCT040 07/03 Q1011=
EGHI 120950Z 30010KT 260V350 9999 FEW020 SCT044 06/04 Q1011=
EGHI 120920Z 30010KT 260V350 9999 FEW044 06/04 Q1011=
EGHI 120850Z 31008KT 270V010 9999 FEW044 06/04 Q1010=
EGHI 120820Z 30007KT 270V330 9999 FEW044 06/04 Q1010=
EGHI 120750Z 31005KT 270V340 9999 FEW012 06/04 Q1010=
EGHI 120720Z 32007KT 290V350 9999 FEW012 06/04 Q1010=
EGHI 120650Z 32007KT 290V350 9999 FEW012 06/05 Q1009=
EGHI 112120Z 00000KT 9999 FEW018 SCT029 08/07 Q1012=
EGHI 112050Z 00000KT 9999 FEW018 08/07 Q1013=
EGHI 112020Z 00000KT 9999 FEW018 08/07 Q1013=
EGHI 111950Z 36002KT 9999 FEW018 08/07 Q1013=
EGHI 111920Z 36002KT 9999 -RA FEW018 BKN033 08/07 Q1013=
EGHI 111850Z 36002KT 9999 -RA FEW018 BKN029 08/07 Q1013=
EGHI 111820Z VRB01KT 9999 -RA FEW024 BKN029 08/07 Q1013=
EGHI 111750Z 00000KT 9999 BKN028 08/07 Q1013=
EGHI 111720Z 02002KT 9999 SCT022 BKN038 09/07 Q1013=
EGHI 111650Z 01006KT 9999 FEW014 BKN025 09/07 Q1012=
EGHI 111620Z 36005KT 9999 FEW012 BKN025 10/08 Q1012=
EGHI 111550Z 35007KT 9999 FEW012 BKN025 10/08 Q1012=
EGHI 111520Z 35006KT 9999 FEW010 SCT017 10/08 Q1011=
EGHI 111450Z 36006KT 320V040 9999 VCSH FEW010 SCT015 10/09 Q1011=
EGHI 111420Z 36005KT 330V030 9999 VCSH SCT010 SCT031 10/09 Q1011=
EGHI 111350Z 36006KT 330V040 9999 VCSH SCT008 SCT026 10/09 Q1011=
EGHI 111320Z 36006KT 340V040 9999 VCSH SCT007 BKN019 11/10 Q1011=
EGHI 111250Z 01007KT 8000 VCSH SCT007 BKN016 11/10 Q1010=
EGHI 111220Z 31008KT 240V040 6000 VCSH SCT011 BKN020 13/12 Q1010=
EGHI 111150Z 29008G19KT 240V320 6000 VCSH SCT012 BKN025 13/12 Q1010=
EGHI 111120Z 28007KT 240V300 6000 SCT012 BKN025 13/12 Q1010=
EGHI 111050Z 27007KT 240V300 6000 SCT012 BKN025 13/11 Q1010=
EGHI 111020Z 27006KT 240V300 6000 SCT012 BKN024 13/12 Q1010=
EGHI 110950Z 26005KT 230V300 6000 SCT012 BKN024 12/11 Q1010=
EGHI 110920Z 25006KT 220V280 6000 SCT012 BKN024 12/11 Q1010=
EGHI 110850Z 25005KT 220V280 3500 -RA SCT007 BKN020 11/11 Q1010=
EGHI 110820Z 25006KT 3500 -RA SCT007 BKN020 11/11 Q1010=
EGHI 110750Z 24008KT 3500 -RA SCT007 BKN020 11/10 Q1010=
EGHI 110720Z 25007KT 210V280 3500 -RA SCT007 BKN020 11/10 Q1010=
EGHI 110650Z 25008KT 4000 -RA SCT007 BKN020 11/10 Q1010=
EGHI 110620Z 25008KT 5000 -RA SCT007 BKN015 11/10 Q1010=
EGHI 110550Z 25009KT 220V280 5000 -RA SCT007 BKN015 11/10 Q1011=
EGHI 102220Z 24005KT CAVOK 08/04 Q1020=
EGHI 102150Z 24007KT 210V270 CAVOK 08/04 Q1021=
EGHI 102120Z 24004KT CAVOK 08/03 Q1021=
EGHI 102050Z 24006KT CAVOK 07/03 Q1021=
EGHI 102020Z 24006KT CAVOK 07/03 Q1022=
EGHI 101950Z 25005KT 220V280 CAVOK 07/02 Q1022=
EGHI 101920Z 25005KT 230V290 CAVOK 08/03 Q1022=
EGHI 101850Z 24006KT 210V280 CAVOK 08/03 Q1022=
EGHI 101820Z 24005KT CAVOK 08/02 Q1022=
EGHI 101750Z 23004KT 210V300 CAVOK 08/02 Q1022=
EGHI 101720Z 26004KT 230V290 9999 FEW048 08/02 Q1023=
EGHI 101650Z 28004KT 220V310 9999 FEW048 09/02 Q1022=
EGHI 101620Z 30007KT 260V340 9999 FEW048 10/02 Q1022=
EGHI 101550Z 30007KT 260V350 9999 FEW043 10/03 Q1022=
EGHI 101520Z 29008KT 250V330 9999 FEW043 10/03 Q1022=
EGHI 101450Z 29010KT 250V330 9999 FEW043 11/02 Q1021=
EGHI 101420Z 30007KT 240V340 9999 FEW043 12/03 Q1021=
EGHI 101350Z 32010KT 290V360 9999 FEW043 11/03 Q1021=
EGHI 101320Z 31009KT 270V350 9999 FEW041 11/03 Q1021=
EGHI 101250Z 31009KT 270V360 9999 SCT038 11/03 Q1021=
EGHI 101220Z 30010KT 260V360 9999 SCT038 12/03 Q1021=
EGHI 101150Z 29011KT 260V330 9999 SCT038 12/04 Q1021=
EGHI 101120Z 30010KT 250V340 9999 FEW034 12/04 Q1021=
EGHI 101050Z 30011KT 250V340 9999 FEW032 12/05 Q1021=
EGHI 101020Z 31016KT 280V340 9999 SCT028 12/05 Q1021=
EGHI 100950Z 29011G21KT 250V320 9999 SCT022 12/08 Q1020=
EGHI 100920Z 28010KT 250V330 9999 SCT022 12/09 Q1020=
EGHI 100850Z 28009KT 230V310 9999 FEW015 SCT049 12/09 Q1020=
EGHI 100820Z 27005KT 230V290 9999 FEW015 SCT046 12/09 Q1020=
EGHI 100750Z 26006KT 230V290 9999 FEW015 11/09 Q1020=
EGHI 100720Z 27005KT 200V310 9999 FEW015 SCT026 11/09 Q1020=
EGHI 100650Z 26008KT 230V290 9999 FEW015 SCT022 11/09 Q1019=
EGHI 100620Z 27009KT 240V300 9999 FEW015 SCT035 11/09 Q1019=
EGHI 100550Z 27008KT 230V310 9999 FEW012 SCT030 10/09 Q1019=
EGHI 092150Z 31007KT 280V340 9999 FEW035 10/07 Q1024=
EGHI 092120Z 29006KT 250V320 9999 FEW026 10/08 Q1023=
EGHI 092050Z 30005KT 9999 FEW026 10/09 Q1024=
EGHI 092020Z 30005KT 260V330 9999 FEW028 10/09 Q1024=
EGHI 091950Z 31006KT 9999 FEW028 11/09 Q1024=
EGHI 091920Z 30005KT 250V330 9999 FEW028 11/09 Q1024=
EGHI 091850Z VRB03KT 9999 FEW028 12/09 Q1023=
EGHI 091820Z 30004KT 9999 FEW028 12/10 Q1024=
EGHI 091750Z 30006KT 9999 FEW028 12/10 Q1023=
EGHI 091720Z 28004KT 9999 FEW028 12/10 Q1023 =
EGHI 091650Z 29005KT 250V320 9999 SCT028 12/10 Q1023=
EGHI 091620Z VRB02KT 9999 FEW024 BKN040 12/10 Q1023=
EGHI 091550Z 27003KT 9999 FEW024 SCT040 13/10 Q1024=
EGHI 091520Z 27003KT 9999 FEW021 SCT040 13/10 Q1023=
EGHI 091450Z VRB03KT 9999 FEW014 SCT025 13/10 Q1023=
EGHI 091420Z VRB03KT 9999 FEW015 SCT022 BKN040 13/10 Q1023=
EGHI 091350Z 26004KT 210V290 9999 SCT021 BKN035 13/10 Q1023=
EGHI 091250Z 28005KT 250V330 9999 FEW015 SCT038 13/10 Q1024=
EGHI 091220Z VRB03KT 9999 FEW014 SCT038 12/09 Q1024=
EGHI 091150Z VRB01KT 9999 FEW010 SCT048 12/09 Q1024=
EGHI 091120Z VRB01KT 9999 FEW010 SCT048 10/09 Q1024=
EGHI 091050Z 10001KT 9999 SCT010 09/08 Q1024=
EGHI 091020Z 00000KT 9000 SCT006 BKN045 08/07 Q1024=
EGHI 090950Z 00000KT 9000 SCT006 BKN038 06/05 Q1024=
EGHI 090920Z 00000KT 9000 SCT008 BKN038 06/05 Q1024=
EGHI 090850Z 00000KT 9000 SCT008 BKN038 05/04 Q1024=
EGHI 090820Z 00000KT 9999 BKN009 04/04 Q1024=
EGHI 090750Z 00000KT 9999 FEW011 BKN014 02/02 Q1024=
EGHI 090720Z 00000KT 9999 FEW011 BKN015 02/02 Q1024=
EGHI 090650Z 00000KT 9999 FEW012 BKN016 02/02 Q1024=
EGHI 090620Z 00000KT 9999 FEW010 BKN017 02/02 Q1024=
EGHI 090550Z 00000KT 9999 BKN019 02/01 Q1025=
EGHI 082150Z VRB02KT CAVOK M00/M01 Q1026=
EGHI 082120Z 32003KT CAVOK 00/M01 Q1026=
EGHI 082050Z 00000KT CAVOK 01/M00 Q1026=
EGHI 082020Z 00000KT CAVOK 03/01 Q1026=
EGHI 081950Z VRB01KT CAVOK 03/01 Q1026=
EGHI 081920Z VRB03KT CAVOK 04/01 Q1026=
EGHI 081850Z VRB03KT CAVOK 05/02 Q1026=
EGHI 081820Z VRB03KT CAVOK 05/01 Q1026=
EGHI 081750Z VRB03KT CAVOK 06/01 Q1025=
EGHI 081720Z 00000KT CAVOK 04/M00 Q1025=
EGHI 081650Z VRB03KT CAVOK 07/M00 Q1025=
EGHI 081620Z 33005KT 300V360 CAVOK 07/M00 Q1025=
EGHI 081550Z 34007KT CAVOK 08/M00 Q1025=
EGHI 081520Z 35010KT CAVOK 08/00 Q1024=
EGHI 081450Z 35010KT 320V020 CAVOK 09/M00 Q1024=
EGHI 081420Z 33008KT 290V010 CAVOK 09/00 Q1024=
EGHI 081350Z 34010KT 290V010 CAVOK 09/01 Q1024=
EGHI 081320Z 35010KT CAVOK 09/01 Q1024=
EGHI 081250Z 35009KT 300V040 9999 FEW047 09/01 Q1024=
EGHI 081220Z 36009KT 320V030 9999 SCT047 09/01 Q1024=
EGHI 081150Z 35010KT 310V030 9999 SCT049 08/02 Q1024=
EGHI 081120Z 34009KT 310V020 CAVOK 08/02 Q1024=
EGHI 081050Z 34008KT 310V010 CAVOK 07/02 Q1024=
EGHI 081020Z 34007KT 300V360 CAVOK 07/03 Q1024=
EGHI 080950Z 34005KT 300V020 CAVOK 05/03 Q1023=
EGHI 080920Z 34005KT 300V020 CAVOK 05/03 Q1023=
EGHI 080850Z 33004KT 300V010 CAVOK 04/02 Q1023=
EGHI 080820Z VRB03KT CAVOK 03/01 Q1023=
EGHI 080750Z VRB03KT CAVOK 02/01 Q1022=
EGHI 080720Z VRB03KT 9999 FEW034 02/01 Q1022=
EGHI 080650Z VRB03KT 9999 FEW032 02/01 Q1022=
EGHI 080620Z VRB02KT 9999 FEW028 02/01 Q1021=
EGHI 080550Z VRB03KT 9999 FEW028 02/01 Q1021=
EGHI 072150Z 32004KT 280V350 9999 FEW015 SCT035 06/05 Q1018=
EGHI 072120Z 34005KT 300V010 9999 -RA FEW015 SCT035 06/05 Q1017=
EGHI 072050Z 35009KT 9999 -RA FEW015 SCT035 07/05 Q1017=
EGHI 072020Z 34007KT 310V020 9999 -RA FEW010 BKN027 07/05 Q1017=
EGHI 071950Z 34007KT 290V010 9999 -RA FEW010 BKN032 07/06 Q1017=
EGHI 071920Z 33009KT 300V010 9999 -RA SCT018 BKN032 08/06 Q1017=
EGHI 071850Z 33009KT 300V010 6000 -RA SCT010 BKN022 08/06 Q1016=
EGHI 071820Z 35010KT 310V010 6000 -RA FEW015 BKN022 08/06 Q1016=
EGHI 071750Z 33007KT 290V010 6000 -RA SCT008 BKN012 09/07 Q1015=
EGHI 071720Z 31006KT 260V350 6000 -RA SCT008 BKN012 09/07 Q1015=
EGHI 071650Z 31009KT 280V020 4000 -RA SCT008 BKN012 09/08 Q1015=
EGHI 071620Z 21008KT 160V250 4000 RA SCT008 BKN012 10/09 Q1014=
EGHI 071550Z 20007KT 170V230 4000 RA SCT008 BKN012 10/09 Q1014=
EGHI 071520Z 21009KT 170V230 4000 RA BKN011 10/09 Q1014=
EGHI 071450Z 18008KT 150V220 6000 RA SCT011 BKN040 11/09 Q1015=
EGHI 071420Z 19010KT 150V210 8000 -SHRA SCT012 BKN040 11/09 Q1015=
EGHI 071350Z 19007KT 140V210 9000 VCSH SCT012 BKN040 11/09 Q1015=
EGHI 071320Z 19009KT 150V220 6000 -SHRA SCT012 BKN040 11/09 Q1015=
EGHI 071250Z 19010KT 160V220 7000 -SHRA SCT012 BKN026 11/09 Q1016=
EGHI 071220Z 19011KT 160V220 9999 SHRA SCT012 BKN026 11/09 Q1016=
EGHI 071150Z 17007KT 130V220 9999 -DZ SCT010 BKN026 11/09 Q1016=
EGHI 071120Z 18008KT 150V230 9999 VCSH SCT012 BKN028 11/09 Q1016=
EGHI 071050Z 18007KT 140V220 9999 -RA SCT012 BKN028 11/09 Q1017=
EGHI 071020Z 18006KT 140V220 6000 -RA BKN012 OVC025 11/09 Q1017=
EGHI 070950Z 18009KT 140V210 9999 -DZ SCT015 BKN029 11/09 Q1017=
EGHI 070920Z 17006KT 140V210 9999 VCSH SCT015 BKN032 11/09 Q1017=
EGHI 070850Z 17008KT 130V200 9999 VCSH FEW011 SCT017 BKN035 11/09 Q1018=
EGHI 070820Z 18007KT 140V220 9999 -RADZ SCT017 BKN032 11/08 Q1018=
EGHI 070750Z 17005KT 130V210 9999 VCSH SCT017 BKN032 11/08 Q1018=
EGHI 070720Z 18009KT 150V210 9999 SCT026 BKN038 11/08 Q1018=
EGHI 070650Z 18006KT 150V210 9999 FEW020 SCT024 BKN037 11/07 Q1018=
EGHI 070620Z 18007KT 150V220 9999 SCT025 BKN036 11/07 Q1018=
EGHI 070550Z 18007KT 140V230 9999 SCT025 BKN033 11/07 Q1018=
EGHI 062220Z 08001KT 9999 BKN047 09/06 Q1023=
EGHI 062150Z 12001KT 9999 BKN047 09/06 Q1023=
EGHI 062120Z 00000KT 9999 BKN044 09/06 Q1023=
EGHI 062050Z 11002KT 9999 BKN044 06/05 Q1023=
EGHI 062020Z 10001KT 9999 BKN042 07/05 Q1023=
EGHI 061950Z 00000KT 9999 BKN042 07/05 Q1023=
EGHI 061920Z VRB03KT 9999 BKN032 05/04 Q1024=
EGHI 061850Z 00000KT 9999 SCT033 04/03 Q1024=
EGHI 061820Z 00000KT 9999 FEW043 05/03 Q1024=
EGHI 061750Z 17001KT 9999 FEW038 06/03 Q1024=
EGHI 061720Z 17002KT 9999 FEW035 08/03 Q1024=
EGHI 061650Z 19002KT 9999 FEW030 09/04 Q1024=
EGHI 061620Z VRB02KT 9999 FEW030 10/04 Q1024=
EGHI 061550Z 18004KT 9999 FEW028 10/05 Q1024=
EGHI 061520Z 20007KT 9999 FEW028 12/05 Q1024=
EGHI 061450Z VRB01KT 9999 FEW028 12/05 Q1024=
EGHI 061420Z 24003KT 9999 FEW030 10/03 Q1025=
EGHI 061350Z 23006KT 190V280 9999 FEW030 11/02 Q1025=
EGHI 061320Z 20004KT 170V230 9999 FEW030 12/04 Q1025=
EGHI 061250Z VRB02KT 9999 FEW030 11/04 Q1025=
EGHI 061220Z VRB03KT 9000 NSC 11/04 Q1025=
EGHI 061150Z VRB03KT 7000 NSC 10/04 Q1026=
EGHI 061120Z VRB02KT 7000 NSC 10/04 Q1026=
EGHI 061050Z 00000KT 7000 NSC 08/05 Q1026=
EGHI 061020Z 00000KT 5000 BR NSC 06/04 Q1027=
EGHI 060950Z 00000KT 5000 BR NSC 03/03 Q1027=
EGHI 060920Z 09001KT 5000 BR NSC 02/01 Q1027=
EGHI 060850Z 00000KT 5000 BR NSC 01/00 Q1027=
EGHI 060820Z 00000KT 4000 MIFG BR NSC M01/M01 Q1027=
EGHI 060750Z 00000KT 4000 MIFG BR NSC M02/M02 Q1026=
EGHI 060720Z 00000KT 3000 MIFG NSC M03/M03 Q1026=
EGHI 060650Z 00000KT 3000 MIFG NSC M03/M03 Q1026=
EGHI 060620Z 00000KT 2500 BCFG NSC M03/M03 Q1026=
EGHI 060550Z 09001KT 1000 FZFG VV/// M03/M03 Q1026=
EGHI 052220Z 00000KT CAVOK 04/03 Q1023=
EGHI 052150Z 00000KT CAVOK 03/02 Q1023=
EGHI 052120Z VRB01KT CAVOK 03/01 Q1022=
EGHI 052050Z VRB01KT CAVOK 03/01 Q1022=
EGHI 052020Z VRB03KT CAVOK 05/02 Q1022=
EGHI 051950Z 32003KT CAVOK 05/02 Q1021=
EGHI 051920Z 31004KT 280V350 9999 FEW047 05/02 Q1021=
EGHI 051850Z 32004KT 290V350 9999 FEW047 06/02 Q1021=
EGHI 051820Z 31005KT 280V350 9999 FEW045 06/03 Q1020=
EGHI 051750Z 31004KT 280V360 9999 FEW040 07/03 Q1020=
EGHI 051720Z VRB03KT 9999 FEW040 07/02 Q1019=
EGHI 051650Z 31005KT 280V340 9999 FEW038 08/02 Q1019=
EGHI 051620Z 32006KT 290V350 9999 FEW038 08/02 Q1018=
EGHI 051550Z 31008KT 270V360 9999 FEW038 09/02 Q1017=
EGHI 051520Z 31008KT 280V340 9999 FEW038 09/03 Q1017=
EGHI 051450Z 32009G19KT 280V360 9999 FEW033 SCT046 09/03 Q1017=
EGHI 051420Z 31009KT 260V360 9999 FEW032 SCT046 10/03 Q1016=
EGHI 051350Z 31011KT 270V350 9999 FEW034 SCT046 10/02 Q1016=
EGHI 051320Z 32012KT 270V360 9999 FEW032 SCT046 09/03 Q1016=
EGHI 051250Z 32010KT 290V360 9999 FEW032 SCT046 09/02 Q1016=
EGHI 051220Z 33013KT 300V020 9999 SCT046 10/03 Q1015=
EGHI 051150Z 31012KT 270V350 9999 FEW048 09/03 Q1015=
EGHI 051120Z 30010KT 260V350 9999 FEW048 09/02 Q1015=
EGHI 051050Z 29010KT 260V320 9999 FEW048 09/04 Q1014=
EGHI 051020Z 29010KT 250V330 9999 FEW048 08/03 Q1014=
EGHI 050950Z 29004KT 240V320 9999 FEW048 07/03 Q1014=
EGHI 050920Z VRB03KT 9999 FEW048 06/03 Q1014=
EGHI 050850Z VRB02KT 9999 FEW048 05/02 Q1014=
EGHI 050820Z VRB02KT CAVOK 04/02 Q1013=
EGHI 050750Z VRB01KT CAVOK 03/02 Q1013=
EGHI 050720Z VRB01KT CAVOK 02/01 Q1013=
EGHI 050650Z 28001KT CAVOK 02/01 Q1013=
EGHI 042120Z 25004KT 220V280 CAVOK 07/04 Q1009=
EGHI 042050Z 25004KT 220V280 CAVOK 07/04 Q1009=
EGHI 041950Z VRB03KT CAVOK 07/04 Q1009=
EGHI 041920Z 27005KT 230V310 9999 FEW045 07/04 Q1008=
EGHI 041820Z 26003KT 9999 FEW045 08/04 Q1008=
EGHI 041750Z 27002KT 9999 FEW040 08/04 Q1008=
EGHI 041720Z VRB03KT 9999 FEW035 08/04 Q1007=
EGHI 041650Z VRB03KT 9999 FEW035 09/05 Q1007=
EGHI 041620Z 28004KT 240V300 9999 FEW024 10/06 Q1006=
EGHI 041550Z 28004KT 240V310 9999 SCT024 10/07 Q1006=
EGHI 041520Z 27005KT 240V300 9999 FEW026 BKN037 10/07 Q1006=
EGHI 041450Z 28006KT 250V340 9999 -RA FEW026 BKN037 10/07 Q1006=
EGHI 041420Z 29007KT 250V320 9999 SCT026 11/08 Q1005=
EGHI 041350Z 28007KT 240V310 9999 SCT022 12/07 Q1005=
EGHI 041320Z 28007KT 240V320 9999 SCT020 12/08 Q1004=
EGHI 041250Z 30008KT 250V350 9999 SCT019 12/09 Q1004=
EGHI 041220Z 30008KT 260V340 9999 SCT019 12/09 Q1004=
EGHI 041150Z 31010KT 260V350 9999 SCT017 12/10 Q1004=
EGHI 041120Z 30007KT 250V340 9999 SCT017 11/10 Q1004=
EGHI 041050Z 30010KT 260V340 9999 -RA SCT013 BKN049 11/10 Q1003=
EGHI 041020Z 30009KT 270V330 9000 -RA SCT013 BKN025 12/11 Q1003=
EGHI 040950Z 28007KT 250V310 7000 -RA SCT006 BKN015 12/11 Q1003=
EGHI 040920Z 27005KT 230V300 7000 -RA SCT006 BKN015 12/11 Q1002=
EGHI 040850Z VRB03KT 6000 -RA SCT006 BKN012 12/11 Q1002=
EGHI 040820Z 24002KT 6000 -RA FEW005 BKN014 12/11 Q1002=
EGHI 040750Z VRB01KT 6000 -RA SCT005 12/11 Q1002=
EGHI 040720Z 27003KT 5000 -RA BR BKN005 12/11 Q1002=
EGHI 040650Z 22003KT 5000 -RA BR SCT005 BKN032 12/12 Q1002=
EGHI 040620Z 21003KT 6000 -RA FEW004 BKN007 12/12 Q1002=
EGHI 040550Z 20002KT 8000 -RA FEW007 BKN011 12/12 Q1002=
EGHI 032220Z 10002KT 7000 -DZ NSC 10/09 Q1009=
EGHI 032150Z 00000KT 7000 NSC 10/09 Q1009=
EGHI 032120Z 00000KT 7000 NSC 10/09 Q1009=
EGHI 032050Z 00000KT 7000 FEW008 10/09 Q1010=
EGHI 032020Z 00000KT 7000 SCT009 10/09 Q1010=
EGHI 031950Z VRB01KT 8000 FEW009 10/09 Q1010=
EGHI 031920Z 13001KT 8000 FEW024 10/09 Q1010=
EGHI 031850Z 12001KT 9000 FEW024 10/09 Q1010=
EGHI 031820Z 11001KT 9000 FEW030 10/09 Q1010=
EGHI 031750Z 11002KT 9000 FEW030 10/09 Q1011=
EGHI 031720Z 11001KT 9000 FEW030 10/09 Q1011=
EGHI 031650Z 11001KT 9999 FEW032 11/09 Q1011=
EGHI 031620Z 13001KT 9999 FEW032 11/09 Q1011=
EGHI 031550Z 00000KT 9999 FEW028 12/09 Q1011=
EGHI 031520Z 00000KT 9999 FEW028 13/09 Q1011=
EGHI 031450Z 21001KT 9999 FEW025 13/09 Q1012=
EGHI 031420Z VRB01KT 9999 FEW025 13/08 Q1012=
EGHI 031350Z VRB02KT 9000 FEW030 13/08 Q1012=
EGHI 031320Z VRB02KT 9000 FEW026 14/09 Q1012=
EGHI 031250Z VRB02KT 9000 FEW023 13/08 Q1013=
EGHI 031220Z VRB01KT 9000 FEW023 13/11 Q1013=
EGHI 031150Z 00000KT 8000 FEW011 11/10 Q1013=
EGHI 031120Z 00000KT 6000 FEW002 SCT009 09/09 Q1014=
EGHI 031050Z 00000KT 2200 BR FEW002 SCT005 08/08 Q1014=
EGHI 031020Z 00000KT 1300 R20/1300 BR BKN002 07/07 Q1014=
EGHI 030950Z 00000KT 1000 R20/1300 BR BKN002 05/05 Q1015=
EGHI 030920Z 00000KT 1200 R20/1300 BR FEW001 BKN003 04/04 Q1014=
EGHI 030850Z 01001KT 1200 R20/P1500 BR FEW001 BKN003 04/03 Q1014=
EGHI 030820Z 36001KT 1400 R20/P1500 BR FEW002 SCT005 03/02 Q1015=
EGHI 030750Z 00000KT 0900 R20/0900 FG SCT002 BKN006 02/02 Q1015=
EGHI 030650Z 35001KT 1000 R20/1500 FG SCT002 BKN006 02/01 Q1015=
EGHI 030620Z 35002KT 1000 FG SCT002 BKN006 02/01 Q1015=
EGHI 030550Z 36001KT 1600 0800N PRFG SCT002 BKN005 02/02 Q1015=
EGHI 022220Z 00000KT 6000 3000E R20/0900 PRFG FEW015 02/01 Q1017=
EGHI 022150Z 00000KT 6000 3000E R20/0550 PRFG FEW015 02/02 Q1017=
EGHI 022120Z 00000KT 6000 R20/0550 PRFG FEW015 03/02 Q1017=
EGHI 022050Z 00000KT 6000 R20/1100 PRFG FEW018 03/02 Q1017=
EGHI 022020Z 00000KT 6000 2000E R20/0550 PRFG FEW018 03/02 Q1017=
EGHI 021950Z 00000KT 6000 0800E R20/0900 PRFG FEW018 04/03 Q1017=
EGHI 021920Z 00000KT 5000 0800E R20/1100 PRFG BR FEW020 04/04 Q1017=
EGHI 021850Z 00000KT 9000 R20/P1500 PRFG FEW020 05/04 Q1017=
EGHI 021820Z 00000KT 9999 MIFG FEW020 06/05 Q1017=
EGHI 021750Z 00000KT 9999 MIFG FEW020 07/06 Q1016=
EGHI 021720Z 30001KT 9999 MIFG FEW020 08/07 Q1016=
EGHI 021650Z VRB01KT 9999 FEW024 09/07 Q1016=
EGHI 021620Z 36001KT 9999 FEW024 10/08 Q1016=
EGHI 021550Z 01002KT 9999 FEW022 11/08 Q1016=
EGHI 021520Z VRB03KT 9999 FEW020 12/08 Q1016=
EGHI 021450Z VRB03KT 9999 FEW020 13/09 Q1016=
EGHI 021420Z VRB02KT 9999 FEW018 13/09 Q1016=
EGHI 021350Z VRB01KT 9999 FEW018 13/09 Q1016=
EGHI 021320Z VRB02KT 8000 FEW018 12/09 Q1016=
EGHI 021250Z VRB02KT 8000 FEW022 11/09 Q1016=
EGHI 021220Z 00000KT 8000 FEW022 09/08 Q1016=
EGHI 021150Z 00000KT 8000 SCT015 09/08 Q1016=
EGHI 021120Z VRB01KT 6000 FEW003 SCT015 08/08 Q1016=
EGHI 021050Z 00000KT 2200 PRFG FEW003 BKN015 07/06 Q1016=
EGHI 021020Z VRB01KT 0500 R20/1000 FG SCT002 BKN005 06/05 Q1016=
EGHI 020950Z 00000KT 0300 R20/0400 FG SCT002 BKN004 05/05 Q1016=
EGHI 020920Z 00000KT 0300 R20/0225 FG SCT002 BKN004 04/04 Q1016=
EGHI 020850Z 00000KT 0300 R20/0225 FG SCT002 BKN005 04/04 Q1016=
EGHI 020820Z 01001KT 0300 R20/0225 FG SCT002 BKN005 03/03 Q1016=
EGHI 020750Z 02002KT 0400 R20/0450 FG SCT002 BKN005 03/03 Q1016=
EGHI 020720Z 02002KT 0300 R20/0175 FG SCT002 BKN004 04/03 Q1016=
EGHI 020650Z 04002KT 0300 R02/0450 FG SCT002 BKN004 03/03 Q1015=
EGHI 020620Z 00000KT 0300 R02/0400 FG SCT002 BKN004 03/03 Q1015=
EGHI 020550Z 00000KT 0500 FG SCT002 BKN004 02/02 Q1015=
EGHI 012150Z 00000KT 9000 BCFG NSC 04/03 Q1016=
EGHI 012120Z 00000KT 9000 BCFG NSC 04/03 Q1016=
EGHI 012050Z 00000KT 9000 MIFG NSC 05/04 Q1016=
EGHI 012020Z VRB02KT 9999 MIFG NSC 05/05 Q1016=
EGHI 011950Z 00000KT 9999 MIFG NSC 06/05 Q1016=
EGHI 011920Z 00000KT 9999 MIFG NSC 07/06 Q1016=
EGHI 011850Z 00000KT CAVOK 08/07 Q1016=
EGHI 011820Z 12001KT CAVOK 08/07 Q1016=
EGHI 011750Z 14001KT CAVOK 08/07 Q1016=
EGHI 011720Z 11001KT CAVOK 09/07 Q1016=
EGHI 011650Z VRB02KT CAVOK 10/07 Q1016=
EGHI 011620Z VRB02KT CAVOK 12/07 Q1016=
EGHI 011550Z 15003KT CAVOK 13/07 Q1017=
EGHI 011520Z 16005KT 130V200 CAVOK 13/07 Q1017=
EGHI 011450Z 15007KT 120V180 CAVOK 14/07 Q1017=
EGHI 011420Z 15006KT 100V190 CAVOK 15/07 Q1017=
EGHI 011350Z 13005KT 090V160 CAVOK 15/07 Q1017=
EGHI 011320Z 13005KT 100V170 CAVOK 15/08 Q1018=
EGHI 011250Z 13004KT 100V160 CAVOK 15/07 Q1018=
EGHI 011220Z 14005KT 110V170 CAVOK 14/08 Q1019=
EGHI 011150Z VRB03KT CAVOK 14/08 Q1019=
EGHI 011120Z 17005KT 130V200 CAVOK 14/08 Q1020=
EGHI 011050Z 19005KT 150V220 CAVOK 14/08 Q1020=
EGHI 011020Z VRB03KT CAVOK 13/09 Q1020=
EGHI 010950Z 00000KT 9999 NSC 09/09 Q1020=
EGHI 010920Z 00000KT 9000 NSC 09/09 Q1021=
EGHI 010850Z 00000KT 9000 NSC 07/06 Q1021=
EGHI 010820Z 08001KT 8000 NSC 05/05 Q1021=
EGHI 010750Z 00000KT 5000 2000E MIFG BR NSC 04/03 Q1021=
EGHI 010720Z 00000KT 3000 1400E R20/0550 BCFG BR NSC 03/03 Q1021=
EGHI 010650Z 00000KT 1400 0500NE R20/1200 PRFG BR FEW002 03/03 Q1021=
EGHI 010620Z 00000KT 0900 0400N FG FEW002 03/02 Q1021=
EGHI 010550Z 00000KT 0700 FG VV/// 03/02 Q1021=
